[
    {
        "Altitude(m)": 554405.4242483734,
        "Argument of Periapsis(deg)": 0.0,
        "Eccentricity": 0.0,
        "Inclination(deg)": 53.0,
        "Latitude(deg)": 25.652195968560566,
        "Longitude(deg)": -78.87479127371293,
        "Mean Anomaly(deg)": 32.7273,
        "RAAN(deg)": 0.0,
        "Satellite Name": "Starlink Shell 1 2",
        "Satellite Number": 2,
        "Semi-Major Axis(m)": 6931778.249405717,
        "Time(s)": 0
    },
    {
        "Altitude(m)": 554467.1047320399,
        "Argument of Periapsis(deg)": 0.00034857847951123687,
        "Eccentricity": 0.0,
        "Inclination(deg)": 53.0,
        "Latitude(deg)": 26.120924934941954,
        "Longitude(deg)": -78.4511720159136,
        "Mean Anomaly(deg)": 33.35413120355671,
        "RAAN(deg)": -0.0005187700774727988,
        "Satellite Name": "Starlink Shell 1 2",
        "Satellite Number": 2,
        "Semi-Major Axis(m)": 6931778.249405717,
        "Time(s)": 10
    },
    {
        "Altitude(m)": 554530.2849267583,
        "Argument of Periapsis(deg)": 0.0006971569590224737,
        "Eccentricity": 0.0,
        "Inclination(deg)": 53.0,
        "Latitude(deg)": 26.588113006960743,
        "Longitude(deg)": -78.02383711500401,
        "Mean Anomaly(deg)": 33.980962407113424,
        "RAAN(deg)": -0.0010375401549455976,
        "Satellite Name": "Starlink Shell 1 2",
        "Satellite Number": 2,
        "Semi-Major Axis(m)": 6931778.249405717,
        "Time(s)": 20
    },
    {
        "Altitude(m)": 554594.9146958408,
        "Argument of Periapsis(deg)": 0.0010457354385337105,
        "Eccentricity": 0.0,
        "Inclination(deg)": 53.0,
        "Latitude(deg)": 27.053716325219124,
        "Longitude(deg)": -77.59269191276171,
        "Mean Anomaly(deg)": 34.60779361067014,
        "RAAN(deg)": -0.0015563102324183964,
        "Satellite Name": "Starlink Shell 1 2",
        "Satellite Number": 2,
        "Semi-Major Axis(m)": 6931778.249405717,
        "Time(s)": 30
    },
    {
        "Altitude(m)": 554660.943356519,
        "Argument of Periapsis(deg)": 0.0013943139180449475,
        "Eccentricity": 0.0,
        "Inclination(deg)": 53.0,
        "Latitude(deg)": 27.51769008605725,
        "Longitude(deg)": -77.15763993686538,
        "Mean Anomaly(deg)": 35.234624814226855,
        "RAAN(deg)": -0.002075080309891195,
        "Satellite Name": "Starlink Shell 1 2",
        "Satellite Number": 2,
        "Semi-Major Axis(m)": 6931778.249405717,
        "Time(s)": 40
    },
    {
        "Altitude(m)": 554728.3197070613,
        "Argument of Periapsis(deg)": 0.0017428923975561844,
        "Eccentricity": 0.0,
        "Inclination(deg)": 53.0,
        "Latitude(deg)": 27.979988512863727,
        "Longitude(deg)": -76.71858390250291,
        "Mean Anomaly(deg)": 35.86145601778357,
        "RAAN(deg)": -0.002593850387363994,
        "Satellite Name": "Starlink Shell 1 2",
        "Satellite Number": 2,
        "Semi-Major Axis(m)": 6931778.249405717,
        "Time(s)": 50
    },
    {
        "Altitude(m)": 554796.992054098,
        "Argument of Periapsis(deg)": 0.002091470877067421,
        "Eccentricity": 0.0,
        "Inclination(deg)": 53.0,
        "Latitude(deg)": 28.440564826886053,
        "Longitude(deg)": -76.27542520352986,
        "Mean Anomaly(deg)": 36.488287221340286,
        "RAAN(deg)": -0.0031126204648367927,
        "Satellite Name": "Starlink Shell 1 2",
        "Satellite Number": 2,
        "Semi-Major Axis(m)": 6931778.249405717,
        "Time(s)": 60
    },
    {
        "Altitude(m)": 554866.9082401529,
        "Argument of Periapsis(deg)": 0.0024400493565786582,
        "Eccentricity": 0.0,
        "Inclination(deg)": 53.0,
        "Latitude(deg)": 28.899371217554975,
        "Longitude(deg)": -75.82806340626922,
        "Mean Anomaly(deg)": 37.115118424897005,
        "RAAN(deg)": -0.003631390542309592,
        "Satellite Name": "Starlink Shell 1 2",
        "Satellite Number": 2,
        "Semi-Major Axis(m)": 6931778.249405717,
        "Time(s)": 70
    },
    {
        "Altitude(m)": 554938.0156713619,
        "Argument of Periapsis(deg)": 0.002788627836089895,
        "Eccentricity": 0.0,
        "Inclination(deg)": 53.0,
        "Latitude(deg)": 29.35635881233914,
        "Longitude(deg)": -75.37639725906037,
        "Mean Anomaly(deg)": 37.74194962845372,
        "RAAN(deg)": -0.00415016061978239,
        "Satellite Name": "Starlink Shell 1 2",
        "Satellite Number": 2,
        "Semi-Major Axis(m)": 6931778.249405717,
        "Time(s)": 80
    },
    {
        "Altitude(m)": 555010.2613453721,
        "Argument of Periapsis(deg)": 0.0031372063156011316,
        "Eccentricity": 0.0,
        "Inclination(deg)": 53.0,
        "Latitude(deg)": 29.811477646151545,
        "Longitude(deg)": -74.92032419206495,
        "Mean Anomaly(deg)": 38.36878083201044,
        "RAAN(deg)": -0.00466893069725519,
        "Satellite Name": "Starlink Shell 1 2",
        "Satellite Number": 2,
        "Semi-Major Axis(m)": 6931778.249405717,
        "Time(s)": 90
    },
    {
        "Altitude(m)": 555083.591879389,
        "Argument of Periapsis(deg)": 0.0034857847951123688,
        "Eccentricity": 0.0,
        "Inclination(deg)": 53.0,
        "Latitude(deg)": 30.26467663033157,
        "Longitude(deg)": -74.45973982046725,
        "Mean Anomaly(deg)": 38.99561203556715,
        "RAAN(deg)": -0.005187700774727988,
        "Satellite Name": "Starlink Shell 1 2",
        "Satellite Number": 2,
        "Semi-Major Axis(m)": 6931778.249405717,
        "Time(s)": 100
    },
    {
        "Altitude(m)": 555157.9535383778,
        "Argument of Periapsis(deg)": 0.003834363274623606,
        "Eccentricity": 0.0,
        "Inclination(deg)": 53.0,
        "Latitude(deg)": 30.715903521230885,
        "Longitude(deg)": -73.9945389642265,
        "Mean Anomaly(deg)": 39.62244323912387,
        "RAAN(deg)": -0.005706470852200787,
        "Satellite Name": "Starlink Shell 1 2",
        "Satellite Number": 2,
        "Semi-Major Axis(m)": 6931778.249405717,
        "Time(s)": 110
    },
    {
        "Altitude(m)": 555233.2922633904,
        "Argument of Periapsis(deg)": 0.004182941754134842,
        "Eccentricity": 0.0,
        "Inclination(deg)": 53.0,
        "Latitude(deg)": 31.16510488843644,
        "Longitude(deg)": -73.5246151589379,
        "Mean Anomaly(deg)": 40.24927444268058,
        "RAAN(deg)": -0.0062252409296735855,
        "Satellite Name": "Starlink Shell 1 2",
        "Satellite Number": 2,
        "Semi-Major Axis(m)": 6931778.249405717,
        "Time(s)": 120
    },
    {
        "Altitude(m)": 555309.5536999935,
        "Argument of Periapsis(deg)": 0.004531520233646079,
        "Eccentricity": 0.0,
        "Inclination(deg)": 53.0,
        "Latitude(deg)": 31.61222608266839,
        "Longitude(deg)": -73.04986017099455,
        "Mean Anomaly(deg)": 40.87610564623729,
        "RAAN(deg)": -0.0067440110071463845,
        "Satellite Name": "Starlink Shell 1 2",
        "Satellite Number": 2,
        "Semi-Major Axis(m)": 6931778.249405717,
        "Time(s)": 130
    },
    {
        "Altitude(m)": 555386.6832268345,
        "Argument of Periapsis(deg)": 0.0048800987131573164,
        "Eccentricity": 0.0,
        "Inclination(deg)": 53.0,
        "Latitude(deg)": 32.05721120339504,
        "Longitude(deg)": -72.57016503025972,
        "Mean Anomaly(deg)": 41.50293684979401,
        "RAAN(deg)": -0.007262781084619184,
        "Satellite Name": "Starlink Shell 1 2",
        "Satellite Number": 2,
        "Semi-Major Axis(m)": 6931778.249405717,
        "Time(s)": 140
    },
    {
        "Altitude(m)": 555464.6259842637,
        "Argument of Periapsis(deg)": 0.005228677192668553,
        "Eccentricity": 0.0,
        "Inclination(deg)": 53.0,
        "Latitude(deg)": 32.500003066214276,
        "Longitude(deg)": -72.08541955486412,
        "Mean Anomaly(deg)": 42.12976805335072,
        "RAAN(deg)": -0.007781551162091982,
        "Satellite Name": "Starlink Shell 1 2",
        "Satellite Number": 2,
        "Semi-Major Axis(m)": 6931778.249405717,
        "Time(s)": 150
    },
    {
        "Altitude(m)": 555543.3269030222,
        "Argument of Periapsis(deg)": 0.00557725567217979,
        "Eccentricity": 0.0,
        "Inclination(deg)": 53.0,
        "Latitude(deg)": 32.9405431700562,
        "Longitude(deg)": -71.59551188137671,
        "Mean Anomaly(deg)": 42.756599256907435,
        "RAAN(deg)": -0.00830032123956478,
        "Satellite Name": "Starlink Shell 1 2",
        "Satellite Number": 2,
        "Semi-Major Axis(m)": 6931778.249405717,
        "Time(s)": 160
    },
    {
        "Altitude(m)": 555622.7307330281,
        "Argument of Periapsis(deg)": 0.0059258341516910265,
        "Eccentricity": 0.0,
        "Inclination(deg)": 53.0,
        "Latitude(deg)": 33.378771664266935,
        "Longitude(deg)": -71.1003295136176,
        "Mean Anomaly(deg)": 43.383430460464155,
        "RAAN(deg)": -0.00881909131703758,
        "Satellite Name": "Starlink Shell 1 2",
        "Satellite Number": 2,
        "Semi-Major Axis(m)": 6931778.249405717,
        "Time(s)": 170
    },
    {
        "Altitude(m)": 555702.7820721541,
        "Argument of Periapsis(deg)": 0.006274412631202263,
        "Eccentricity": 0.0,
        "Inclination(deg)": 53.0,
        "Latitude(deg)": 33.81462731564353,
        "Longitude(deg)": -70.59975886478789,
        "Mean Anomaly(deg)": 44.01026166402087,
        "RAAN(deg)": -0.00933786139451038,
        "Satellite Name": "Starlink Shell 1 2",
        "Satellite Number": 2,
        "Semi-Major Axis(m)": 6931778.249405717,
        "Time(s)": 180
    }
]